STARLINK-3847           
1 52333U 22045C   26068.65488728 -.00000658  00000+0 -23268-4 0  9994
2 52333  53.2176 209.2808 0000996  98.7362 261.3743 15.08841343215629
GRBBETA                 
1 60237U 24128C   26068.70717138  .00006748  00000+0  46404-3 0  9996
2 60237  61.9904 205.0764 0051339 114.1677 246.4795 15.05794613 91289
